satname,norad_id,inclination_deg,eccentricity,mean_motion_rev_per_day,perigee_km,apogee_km,l1,l2
STARLINK-1143,45179,53.0477,0.0004666,15.5731045,392.28418803866134,398.6052945196234,1 45179U 20012B   26049.41175295  .00061788  00000+0  83090-3 0  9998,2 45179  53.0477  63.8293 0004666  10.1816 349.9289 15.57310450332917
STARLINK-1202,45183,53.1609,0.000154,15.30192699,474.18144940016373,476.29228855180827,1 45183U 20012F   26049.68191573  .00002335  00000+0  90961-4 0  9998,2 45183  53.1609 127.5401 0001540  86.4860 273.6317 15.30192699332045
STARLINK-1216,45185,53.1613,0.0001182,15.30199468,474.40659147353017,476.0267242782511,1 45185U 20012H   26049.47648118  .00000760  00000+0  37784-4 0  9993,2 45185  53.1613 128.4738 0001182  95.6963 264.4173 15.30199468331951
STARLINK-1225,45187,53.1613,0.0001548,15.30184362,474.20085593783824,476.32266819457345,1 45187U 20012K   26049.53871335  .00003673  00000+0  13614-3 0  9992,2 45187  53.1613 128.6273 0001548  60.3425 299.7730 15.30184362332001
STARLINK-1230,45189,53.1615,0.000138,15.3018201,474.3230148445573,476.2145548411727,1 45189U 20012M   26049.54820544  .00000016  00000+0  12668-4 0  9998,2 45189  53.1615 128.6409 0001380  85.0148 275.1010 15.30182010329234
STARLINK-1234,45190,53.0452,0.0005418,15.57756359,390.4828246108582,397.82127702632533,1 45190U 20012N   26049.91671296  .00138118  00000+0  18011-2 0  9990,2 45190  53.0452  56.7422 0005418 274.3001 295.3100 15.57756359  5829
STARLINK-1269,45197,53.1618,0.0001422,15.30187278,474.2785032154843,476.2276073472058,1 45197U 20012V   26049.47970467  .00000824  00000+0  39969-4 0  9999,2 45197  53.1618 128.8193 0001422  80.3871 279.7290 15.30187278331971
STARLINK-1154,45198,53.05,0.0006322,15.42925924,433.17032724939236,441.7879923218252,1 45198U 20012W   26049.40081927  .00064829  00000+0  14481-2 0  9992,2 45198  53.0500 101.7804 0006322  14.5633 345.5553 15.42925924332313
STARLINK-1199,45201,53.1005,0.0001423,15.18128982,510.5151631341405,512.4759525601048,1 45201U 20012Z   26049.91671296  .00072990  00000+0  35129-2 0  9997,2 45201  53.1005 110.6595 0001423 120.8021 145.3105 15.18128982  5783
STARLINK-1209,45206,53.0476,0.0006973,15.47432604,419.4964147769206,428.9830093395567,1 45206U 20012AE  26049.44930540  .00079502  00000+0  15179-2 0  9999,2 45206  53.0476  65.6518 0006973 234.9659 125.0694 15.47432604331930
STARLINK-1210,45207,53.0117,0.000499,16.01924779,265.7717870726128,272.4057183738305,1 45207U 20012AF  26049.27230570  .00520965  13296-3  89149-3 0  9995,2 45207  53.0117 359.8530 0004990 103.7453 256.4133 16.01924779333789
STARLINK-1231,45212,53.0461,0.0003409,15.19403708,505.2942181336157,509.9889419694955,1 45212U 20012AL  26049.61376463  .00039013  00000+0  18251-2 0  9990,2 45212  53.0461 103.2730 0003409   7.6096 352.4950 15.19403708332324
STARLINK-1271,45217,53.0923,4.95e-05,15.16289001,516.726723155627,517.4093484541718,1 45217U 20012AR  26049.91671296  .00076194  00000+0  38627-2 0  9990,2 45217  53.0923 110.7368 0000495 194.9414 107.5432 15.16289001  5830
STARLINK-1191,45222,53.1576,0.0001212,15.31022463,471.93011379062045,473.59077133069695,1 45222U 20012AW  26049.53576395  .00005655  00000+0  19789-3 0  9991,2 45222  53.1576  87.8323 0001212  89.2429 270.8711 15.31022463332589
STARLINK-1212,45223,53.0522,0.00051,15.44734344,428.6855107463198,435.632012423137,1 45223U 20012AX  26049.88480811  .00070117  00000+0  14720-2 0  9991,2 45223  53.0522  80.2131 0005100  37.4789 322.6572 15.44734344332727
STARLINK-1215,45225,53.1611,0.0001544,15.30174869,474.23193793707287,476.3482762277399,1 45225U 20012AZ  26049.58379796  .00004070  00000+0  14959-3 0  9999,2 45225  53.1611  87.0478 0001544  96.1633 263.9544 15.30174869332558
STARLINK-1221,45227,53.0687,0.000231,15.41167741,441.08612902452023,444.23733803941286,1 45227U 20012BB  26049.26697468  .00017644  00000+0  42775-3 0  9993,2 45227  53.0687   1.5959 0002310   0.9150 359.1858 15.41167741333714
STARLINK-1222,45228,53.0558,0.0003221,15.48354862,419.3481019636465,423.72845277732904,1 45228U 20012BC  26049.32759539  .00058583  00000+0  10890-2 0  9998,2 45228  53.0558  75.5512 0003221  32.6109 327.5097 15.48354862332628
STARLINK-1226,45229,53.1592,0.000129,15.31025734,471.8669201930934,473.63444921574774,1 45229U 20012BD  26049.48708764  .00000692  00000+0  34703-4 0  9999,2 45229  53.1592  87.8609 0001290  87.7822 272.3326 15.31025734332478
STARLINK-1227,45230,53.1588,0.0001077,15.31028384,472.00493965236274,473.48061915684775,1 45230U 20012BE  26049.38418760 -.00000315  00000+0  15668-5 0  9997,2 45230  53.1588  88.6461 0001077  98.9290 261.1833 15.31028384332570
STARLINK-1246,45235,53.1598,0.0001229,15.3019114,474.399243689355,476.08380413053237,1 45235U 20012BK  26049.55444066  .00000136  00000+0  16736-4 0  9995,2 45235  53.1598 128.1305 0001229  87.6019 272.5123 15.30191140332046
STARLINK-1270,45237,53.0501,0.0004023,15.43702751,432.45144819648885,437.9334530724682,1 45237U 20012BM  26049.56697387  .00070318  00000+0  15289-2 0  9993,2 45237  53.0501  78.6601 0004023   1.6263 358.4755 15.43702751332710
STARLINK-1279,45360,53.0438,0.0004142,15.53614407,403.3733048811564,408.99343587597923,1 45360U 20019A   26049.91671296  .00095902  00000+0  14671-2 0  9997,2 45360  53.0438 189.5259 0004142 146.9689 107.6739 15.53614407  5954
STARLINK-1301,45361,53.0439,0.0005981,15.60428692,382.37197924047996,390.463739763416,1 45361U 20019B   26049.91671296  .00122296  00000+0  14446-2 0  9995,2 45361  53.0439 195.9122 0005981 148.8420 178.6011 15.60428692  5927
STARLINK-1262,45366,53.0624,0.0001479,15.08699466,539.1497604784263,541.196196570073,1 45366U 20019G   26049.91671296  .00053090  00000+0  33414-2 0  9991,2 45366  53.0624 250.8821 0001479 122.6531 248.3341 15.08699466  5692
STARLINK-1273,45367,53.0509,0.0001465,15.42161247,438.73316057842294,440.73079618909014,1 45367U 20019H   26049.75294766  .00073454  00000+0  16811-2 0  9995,2 45367  53.0509 244.7486 0001465 149.3855 210.7235 15.42161247326975
STARLINK-1276,45368,53.0541,0.0001294,15.06382857,546.3679523602614,548.1602461647508,1 45368U 20019J   26049.84216276  .00001046  00000+0  89172-4 0  9996,2 45368  53.0541 251.2270 0001294  90.1011 270.0126 15.06382857326894
STARLINK-1277,45369,53.052,0.0001064,15.45511624,429.15080850830236,430.59955350041855,1 45369U 20019K   26049.91671296  .00118669  00000+0  24058-2 0  9992,2 45369  53.0520 242.2967 0001064 107.2181  11.2210 15.45511624  5867
STARLINK-1281,45370,53.053,0.000186,15.06405114,545.9077723926885,548.483996225651,1 45370U 20019L   26049.83110950  .00001439  00000+0  11545-3 0  9994,2 45370  53.0530 251.2773 0001860 104.1317 255.9879 15.06405114326896
STARLINK-1300,45374,53.0545,0.0001401,15.06388913,546.275292111266,548.2157842984716,1 45374U 20019Q   26049.78686969  .00000107  00000+0  26116-4 0  9992,2 45374  53.0545 251.4743 0001401 103.8808 256.2337 15.06388913326886
STARLINK-1302,45375,53.052,0.0002625,15.46732554,424.5058950516832,428.0782203069648,1 45375U 20019R   26049.91671296  .00139615  00000+0  27054-2 0  9992,2 45375  53.0520 241.6928 0002625 173.0795 116.2674 15.46732554  5903
STARLINK-1304,45376,53.0516,0.0004032,15.44903868,428.91484127238346,434.40626201803116,1 45376U 20019S   26049.83913677  .00071467  00000+0  14916-2 0  9999,2 45376  53.0516 239.4712 0004032 159.5047 200.6121 15.44903868327052
STARLINK-1305,45377,53.0461,0.0005481,15.49170863,415.4247276498463,422.8759140109414,1 45377U 20019T   26049.76557949  .00091463  00000+0  16405-2 0  9991,2 45377  53.0461 223.2114 0005481 112.1835 247.9755 15.49170863327286
STARLINK-1319,45379,53.0484,0.0004999,15.55166154,398.2804578400546,405.05890856191945,1 45379U 20019V   26049.70291707  .00102067  00000+0  14737-2 0  9993,2 45379  53.0484 222.1529 0004999 131.8503 228.2935 15.55166154327292
STARLINK-1266,45383,53.0517,0.0001019,15.42554793,437.87769547470907,439.2669408337488,1 45383U 20019Z   26049.75674101  .00038923  00000+0  88751-3 0  9993,2 45383  53.0517 222.9778 0001019 176.8880 183.2131 15.42554793327277
STARLINK-1267,45384,53.0527,0.0006577,15.46302388,423.07784605895904,432.03005193326953,1 45384U 20019AA  26049.70223124  .00082737  00000+0  16417-2 0  9995,2 45384  53.0527 217.8284 0006577 170.1502 189.9634 15.46302388327340
STARLINK-1272,45386,53.0464,0.0004617,15.52448004,406.44723767971664,412.71501659831665,1 45386U 20019AC  26049.70023000  .00095177  00000+0  15187-2 0  9993,2 45386  53.0464 201.5096 0004617 134.5647 225.5739 15.52448004327571
STARLINK-1274,45387,53.0292,0.0007311,15.44694027,427.2981677769694,437.2563555103452,1 45387U 20019AD  26049.71289881  .00035769  00000+0  75933-3 0  9993,2 45387  53.0292 193.4521 0007311 170.4102 189.7044 15.44694027327683
STARLINK-1280,45388,53.045,0.0004578,15.61624917,379.8676954305856,386.058158523726,1 45388U 20019AE  26049.91671296  .00150949  00000+0  16961-2 0  9994,2 45388  53.0450 214.4645 0004578 126.3000 185.4573 15.61624917  5975
STARLINK-1283,45389,53.0466,0.0008621,15.5213441,404.64287900586623,416.3478389191887,1 45389U 20019AF  26049.68609951  .00110380  00000+0  17749-2 0  9998,2 45389  53.0466 201.7677 0008621 165.1078 195.0186 15.52134410327570
STARLINK-1284,45390,53.0504,0.0001262,15.48296462,420.851119763357,422.56740095947225,1 45390U 20019AG  26049.78538924  .00091913  00000+0  17003-2 0  9995,2 45390  53.0504 221.6932 0001262 173.1590 186.9434 15.48296462327297
STARLINK-1297,45395,53.0498,8.92e-05,15.50367187,415.0471629409849,416.2591751071377,1 45395U 20019AM  26049.88742284  .00088003  00000+0  15149-2 0  9992,2 45395  53.0498 221.2139 0000892 210.4019 149.6938 15.50367187326490
STARLINK-1307,45397,53.055,0.0001037,15.48852602,419.37645952165076,420.78641002502263,1 45397U 20019AP  26049.78358510  .00020721  00000+0  38570-3 0  9995,2 45397  53.0550 221.3768 0001037  79.2395 280.8729 15.48852602327125
